OBJECT_NAME,OBJECT_ID,EPOCH,MEAN_MOTION,ECCENTRICITY,INCLINATION,RA_OF_ASC_NODE,ARG_OF_PERICENTER,MEAN_ANOMALY,EPHEMERIS_TYPE,CLASSIFICATION_TYPE,NORAD_CAT_ID,ELEMENT_SET_NO,REV_AT_EPOCH,BSTAR,MEAN_MOTION_DOT,MEAN_MOTION_DDOT
SAUDISAT 1C (SO-50),2002-058C,2026-07-13T18:58:26.779872,14.83096814,.0074574,64.5517,46.6715,257.5378,101.7377,0,U,27607,999,26840,.62101E-4,.373E-5,0
SAUDISAT 2,2004-025F,2026-07-13T14:40:42.536352,14.56697761,.0023978,98.5519,195.2777,213.1806,146.7889,0,U,28371,999,16959,.34565E-4,.105E-5,0
SAUDISAT 3,2007-012B,2026-07-13T20:20:17.685024,14.71439911,.0015504,98.1467,145.2675,138.7145,221.5237,0,U,31118,999,3166,.25381E-4,.106E-5,0
PISAT,2016-059B,2026-07-13T12:06:17.036640,14.69027907,.00303814,97.8190,193.8276,119.9868,240.4360,0,U,41784,999,52360,.88465925E-4,.475E-5,0
FLYING LAPTOP,2017-042G,2026-07-13T20:19:46.401312,15.01308694,.0019757,97.4792,349.3759,36.8487,323.4091,0,U,42831,999,49045,.19107E-3,.241E-4,0
SALSAT,2020-068K,2026-07-13T12:03:32.996736,15.30157505,.00089942,97.8854,199.1769,199.0888,161.0016,0,U,46495,999,31938,.15262836E-3,.4373E-4,0
