SAUDISAT 1C (SO-50)     
1 27607U 02058C   26194.79058773  .00000373  00000+0  62101-4 0  9991
2 27607  64.5517  46.6715 0074574 257.5378 101.7377 14.83096814268405
SAUDISAT 2              
1 28371U 04025F   26194.61160343  .00000105  00000+0  34565-4 0  9990
2 28371  98.5519 195.2777 0023978 213.1806 146.7889 14.56697761169593
SAUDISAT 3              
1 31118U 07012B   26194.84742691  .00000106  00000+0  25381-4 0  9996
2 31118  98.1467 145.2675 0015504 138.7145 221.5237 14.71439911 31663
PISAT                   
1 41784U 16059B   26194.50436385  .00000475  00000+0  88466-4 0  9992
2 41784  97.8190 193.8276 0030381 119.9868 240.4360 14.69027907523603
FLYING LAPTOP           
1 42831U 17042G   26194.84706483  .00002410  00000+0  19107-3 0  9991
2 42831  97.4792 349.3759 0019757  36.8487 323.4091 15.01308694490454
SALSAT                  
1 46495U 20068K   26194.50246524  .00004373  00000+0  15263-3 0  9990
2 46495  97.8854 199.1769 0008994 199.0888 161.0016 15.30157505319387
